NORAD_CAT_ID,OBJECT_NAME,OBJECT_TYPE,EPOCH,MEAN_MOTION,ECCENTRICITY,INCLINATION,RA_OF_ASC_NODE,ARG_OF_PERICENTER,MEAN_ANOMALY,BSTAR,MEAN_MOTION_DOT,MEAN_MOTION_DDOT,TLE_LINE0,TLE_LINE1,TLE_LINE2,SEMIMAJOR_AXIS,PERIOD,APOGEE,PERIGEE,DECAYED
55400.0,STARLINK-5632,PAYLOAD,2023-11-24 12:16:23,14.98322541,0.0002501,70.0003,12.7777,260.6898,99.3979,-7.6395e-05,-1.004e-05,0.0,0 STARLINK-5632,1 55400U 23014K   23328.51137970 -.00001004  00000-0 -76395-4 0  9996,2 55400  70.0003  12.7777 0002501 260.6898  99.3979 14.98322541 46807,6950.216,96.107,573.819,570.343,0.0
55400.0,STARLINK-5632,PAYLOAD,2023-11-25 04:17:43,14.98329256,0.0002939,69.9991,11.0933,267.7162,92.366,3.7574e-05,3.55e-06,0.0,0 STARLINK-5632,1 55400U 23014K   23329.17897282  .00000355  00000-0  37574-4 0  9990,2 55400  69.9991  11.0933 0002939 267.7162  92.3660 14.98329256 45969,6950.195,96.107,574.103,570.018,0.0
55400.0,STARLINK-5632,PAYLOAD,2023-11-25 12:18:23,14.98331228,0.0002451,70.0005,10.2528,252.9611,107.128,8.2938e-05,8.97e-06,0.0,0 STARLINK-5632,1 55400U 23014K   23329.51277031  .00000897  00000-0  82938-4 0  9997,2 55400  70.0005  10.2528 0002451 252.9611 107.1280 14.98331228 46958,6950.189,96.107,573.758,570.351,0.0
55400.0,STARLINK-5632,PAYLOAD,2023-11-26 10:44:15,14.98351249,0.0002323,70.0011,7.8967,245.561,114.5306,-0.0001578,-1.976e-05,0.0,0 STARLINK-5632,1 55400U 23014K   23330.44740100 -.00001976  00000-0 -15780-3 0  9994,2 55400  70.0011   7.8967 0002323 245.5610 114.5306 14.98351249 46157,6950.127,96.106,573.607,570.378,0.0
55400.0,STARLINK-5632,PAYLOAD,2023-11-26 12:20:23,14.98338267,0.0002215,70.0013,7.7269,274.4736,85.617,0.00014388,1.625e-05,0.0,0 STARLINK-5632,1 55400U 23014K   23330.51416366  .00001625  00000-0  14388-3 0  9998,2 55400  70.0013   7.7269 0002215 274.4736  85.6170 14.98338267 47101,6950.167,96.106,573.572,570.493,0.0
55400.0,STARLINK-5632,PAYLOAD,2023-11-27 04:21:46,14.9831001,0.0002229,70.0008,6.0449,253.6815,106.4098,-0.00024659,-3.032e-05,0.0,0 STARLINK-5632,1 55400U 23014K   23331.18179081 -.00003032  00000-0 -24659-3 0  9990,2 55400  70.0008   6.0449 0002229 253.6815 106.4098 14.98310010 46262,6950.255,96.108,573.669,570.57,0.0
55400.0,STARLINK-5632,PAYLOAD,2023-11-27 12:22:30,14.98273377,0.0001933,70.0012,5.2043,291.7019,68.3934,-0.00061654,-7.43e-05,0.0,0 STARLINK-5632,1 55400U 23014K   23331.51563059 -.00007430  00000-0 -61654-3 0  9991,2 55400  70.0012   5.2043 0001933 291.7019  68.3934 14.98273377 46313,6950.368,96.111,573.577,570.889,0.0
55400.0,STARLINK-5632,PAYLOAD,2023-11-28 02:47:41,14.98306395,0.0001993,70.0022,3.6932,279.2601,80.8333,-0.00027001,-3.311e-05,0.0,0 STARLINK-5632,1 55400U 23014K   23332.11644971 -.00003311  00000-0 -27001-3 0  9993,2 55400  70.0022   3.6932 0001993 279.2601  80.8333 14.98306395 46406,6950.266,96.109,573.516,570.746,0.0
55400.0,STARLINK-5632,PAYLOAD,2023-11-28 10:48:19,14.9833309,0.000218,70.0017,2.8467,234.4574,125.6381,4.6984e-05,4.68e-06,0.0,0 STARLINK-5632,1 55400U 23014K   23332.45022426  .00000468  00000-0  46984-4 0  9995,2 55400  70.0017   2.8467 0002180 234.4574 125.6381 14.98333090 46453,6950.183,96.107,573.563,570.533,0.0
55400.0,STARLINK-5632,PAYLOAD,2023-11-28 12:24:27,14.98334631,0.0002182,70.0013,2.6763,260.0499,100.0414,5.4879e-05,5.62e-06,0.0,0 STARLINK-5632,1 55400U 23014K   23332.51698385  .00000562  00000-0  54879-4 0  9992,2 55400  70.0013   2.6763 0002182 260.0499 100.0414 14.98334631 47401,6950.179,96.107,573.56,570.527,0.0
55400.0,STARLINK-5632,PAYLOAD,2023-11-29 12:26:27,14.98334111,0.0002502,70.0001,0.1516,266.565,93.5223,0.00040857,4.786e-05,0.0,0 STARLINK-5632,1 55400U 23014K   23333.51837188  .00004786  00000-0  40857-3 0  9991,2 55400  70.0001   0.1516 0002502 266.5650  93.5223 14.98334111 46612,6950.18,96.107,573.784,570.306,0.0
55400.0,STARLINK-5632,PAYLOAD,2023-11-30 10:52:20,14.98338658,0.0002309,70.0011,357.7964,245.8172,114.2746,-5.386e-05,-7.36e-06,0.0,0 STARLINK-5632,1 55400U 23014K   23334.45302028 -.00000736  00000-0 -53860-4 0  9997,2 55400  70.0011 357.7964 0002309 245.8172 114.2746 14.98338658 46751,6950.166,96.106,573.636,570.426,0.0
55400.0,STARLINK-5632,PAYLOAD,2023-12-01 10:54:21,14.98337558,0.0002385,70.0005,355.2707,256.3914,103.6979,-0.00010653,-1.364e-05,0.0,0 STARLINK-5632,1 55400U 23014K   23335.45441501 -.00001364  00000-0 -10653-3 0  9998,2 55400  70.0005 355.2707 0002385 256.3914 103.6979 14.98337558 46902,6950.17,96.107,573.692,570.377,0.0
55400.0,STARLINK-5632,PAYLOAD,2023-12-02 10:56:21,14.98329187,0.0002238,70.0012,352.7466,267.4213,92.669,0.0003264,3.804e-05,0.0,0 STARLINK-5632,1 55400U 23014K   23336.45580293  .00003804  00000-0  32640-3 0  9990,2 55400  70.0012 352.7466 0002238 267.4213  92.6690 14.98329187 47059,6950.195,96.107,573.616,570.505,0.0
55400.0,STARLINK-5632,PAYLOAD,2023-12-03 02:57:44,14.9830631,0.0002408,70.0011,351.0637,248.8897,111.2005,-0.0002021,-2.502e-05,0.0,0 STARLINK-5632,1 55400U 23014K   23337.12342961 -.00002502  00000-0 -20210-3 0  9999,2 55400  70.0011 351.0637 0002408 248.8897 111.2005 14.98306310 47152,6950.266,96.109,573.805,570.458,0.0
55400.0,STARLINK-5632,PAYLOAD,2023-12-03 10:58:25,14.98306422,0.0002317,70.0007,350.2207,259.0969,100.9929,-0.00019965,-2.473e-05,0.0,0 STARLINK-5632,1 55400U 23014K   23337.45723518 -.00002473  00000-0 -19965-3 0  9998,2 55400  70.0007 350.2207 0002317 259.0969 100.9929 14.98306422 48148,6950.266,96.109,573.741,570.52,0.0
55400.0,STARLINK-5632,PAYLOAD,2023-12-04 02:59:45,14.98318904,0.0002621,70.0013,348.5389,257.8287,102.2578,-0.00018642,-2.316e-05,0.0,0 STARLINK-5632,1 55400U 23014K   23338.12483094 -.00002316  00000-0 -18642-3 0  9992,2 55400  70.0013 348.5389 0002621 257.8287 102.2578 14.98318904 47303,6950.227,96.108,573.914,570.271,0.0
55400.0,STARLINK-5632,PAYLOAD,2023-12-04 11:00:25,14.9832301,0.0002611,69.9998,347.6948,255.1098,104.9772,-0.00015599,-1.953e-05,0.0,0 STARLINK-5632,1 55400U 23014K   23338.45862946 -.00001953  00000-0 -15599-3 0  9999,2 55400  69.9998 347.6948 0002611 255.1098 104.9772 14.98323010 48291,6950.215,96.107,573.894,570.265,0.0
55400.0,STARLINK-5632,PAYLOAD,2023-12-05 03:01:45,14.98386708,0.0002637,69.998,346.0099,248.9408,111.1469,-0.00094373,-0.00011352,0.0,0 STARLINK-5632,1 55400U 23014K   23339.12622015 -.00011352  00000-0 -94373-3 0  9996,2 55400  69.9980 346.0099 0002637 248.9408 111.1469 14.98386708 47458,6950.018,96.103,573.715,570.05,0.0
55400.0,STARLINK-5632,PAYLOAD,2023-12-05 11:02:26,14.98318302,0.0002695,69.999,345.169,256.1453,103.9407,0.00022308,2.569e-05,0.0,0 STARLINK-5632,1 55400U 23014K   23339.46002784  .00002569  00000-0  22308-3 0  9995,2 55400  69.9990 345.1690 0002695 256.1453 103.9407 14.98318302 47503,6950.229,96.108,573.967,570.221,0.0
55400.0,STARLINK-5632,PAYLOAD,2023-12-06 04:39:54,14.98334798,0.0002733,69.9984,343.3169,255.1881,104.8975,0.00015845,1.798e-05,0.0,0 STARLINK-5632,1 55400U 23014K   23340.19437999  .00001798  00000-0  15845-3 0  9998,2 55400  69.9984 343.3169 0002733 255.1881 104.8975 14.98334798 47613,6950.178,96.107,573.943,570.144,0.0
55400.0,STARLINK-5632,PAYLOAD,2023-12-06 09:28:18,14.98336689,0.0002551,69.9996,342.8126,257.8054,102.2819,0.00018722,2.142e-05,0.0,0 STARLINK-5632,1 55400U 23014K   23340.39465759  .00002142  00000-0  18722-3 0  9996,2 55400  69.9996 342.8126 0002551 257.8054 102.2819 14.98336689 48589,6950.172,96.107,573.81,570.264,0.0
55400.0,STARLINK-5632,PAYLOAD,2023-12-07 09:30:19,14.9833642,0.0002623,69.9992,340.2873,258.8073,101.2791,4.5711e-05,4.53e-06,0.0,0 STARLINK-5632,1 55400U 23014K   23341.39605488  .00000453  00000-0  45711-4 0  9994,2 55400  69.9992 340.2873 0002623 258.8073 101.2791 14.98336420 47791,6950.173,96.107,573.861,570.215,0.0
55400.0,STARLINK-5632,PAYLOAD,2023-12-08 09:32:19,14.98336421,0.0002572,69.9996,337.763,257.7582,102.3289,-0.00011425,-1.456e-05,0.0,0 STARLINK-5632,1 55400U 23014K   23342.39745355 -.00001456  00000-0 -11425-3 0  9993,2 55400  69.9996 337.7630 0002572 257.7582 102.3289 14.98336421 47945,6950.173,96.107,573.826,570.25,0.0
55400.0,STARLINK-5632,PAYLOAD,2023-12-09 09:34:20,14.98334716,0.0002653,69.9993,335.2378,260.507,99.5789,-2.1996e-05,-3.55e-06,0.0,0 STARLINK-5632,1 55400U 23014K   23343.39884782 -.00000355  00000-0 -21996-4 0  9994,2 55400  69.9993 335.2378 0002653 260.5070  99.5789 14.98334716 48092,6950.178,96.107,573.887,570.199,0.0
55400.0,STARLINK-5632,PAYLOAD,2023-12-09 22:23:25,14.98328526,0.000261,69.9993,333.8915,260.7643,99.3221,-5.0439e-06,-1.53e-06,0.0,0 STARLINK-5632,1 55400U 23014K   23343.93293023 -.00000153  00000-0 -50439-5 0  9997,2 55400  69.9993 333.8915 0002610 260.7643  99.3221 14.98328526 49119,6950.197,96.107,573.876,570.248,0.0
55400.0,STARLINK-5632,PAYLOAD,2023-12-10 09:36:22,14.9832458,0.0002677,69.9991,332.7127,263.2806,96.8049,-5.1341e-05,-7.05e-06,0.0,0 STARLINK-5632,1 55400U 23014K   23344.40025488 -.00000705  00000-0 -51341-4 0  9993,2 55400  69.9991 332.7127 0002677 263.2806  96.8049 14.98324580 48241,6950.21,96.107,573.935,570.214,0.0
55400.0,STARLINK-5632,PAYLOAD,2023-12-11 04:49:58,14.9833153,0.0002952,69.9988,330.6926,270.3473,89.7348,5.0187e-06,-3.3e-07,0.0,0 STARLINK-5632,1 55400U 23014K   23345.20136885 -.00000033  00000-0  50187-5 0  9997,2 55400  69.9988 330.6926 0002952 270.3473  89.7348 14.98331530 48365,6950.188,96.107,574.105,570.001,0.0
55400.0,STARLINK-5632,PAYLOAD,2023-12-11 09:38:22,14.98335085,0.0002776,69.9989,330.1878,267.1103,92.9738,2.6201e-05,2.2e-06,0.0,0 STARLINK-5632,1 55400U 23014K   23345.40164523  .00000220  00000-0  26201-4 0  9995,2 55400  69.9989 330.1878 0002776 267.1103  92.9738 14.98335085 49331,6950.177,96.107,573.972,570.113,0.0
55400.0,STARLINK-5632,PAYLOAD,2023-12-12 08:04:15,14.98330844,0.0002831,69.9996,327.8311,268.9163,91.1671,2.2605e-05,1.77e-06,0.0,0 STARLINK-5632,1 55400U 23014K   23346.33628678  .00000177  00000-0  22605-4 0  9999,2 55400  69.9996 327.8311 0002831 268.9163  91.1671 14.98330844 48537,6950.19,96.107,574.023,570.088,0.0
